name,address,lat,lon,Unnamed: 7,Unnamed: 8,Unnamed: 9
,1 East Windsor Hills Circle The Woodlands TX 77384,30.21057,-95.47488,,,
,100 Mosswood Drive Conroe TX 77302,30.25336,-95.45558,,,
,10010 Branch Crossing Drive The Woodlands TX 77382,30.18465,-95.56631,,,
,101 Old Plantersville Road Montgomery TX 77316,30.38789,-95.70362,,,
,10320 Cude Cemetery Road Willis TX 77318,30.39188,-95.55668,,,
,104 I-45 North Conroe TX 77301,30.31017,-95.46762,,,
,10681 FM 1484 Conroe TX 77303,30.38336,-95.41005,,,
,109 West Mink Street Willis TX 77378,30.42062,-95.47978,,,
,1100 North Thompson Street Conroe TX 77301,30.31852,-95.45739,,,
,11000 Merit Oaks Drive The Woodlands TX 77382,30.19899,-95.57962,,,
,11659 FM 1488 Magnolia TX 77354,30.2219,-95.64797,,,
,12312 Sawmill Road The Woodlands TX 77386,30.12849,-95.46473,,,
,12621 Calvary Road Willis TX 77318,30.46658,-95.54504,,,
,1300 Many Pines Road The Woodlands TX 77380,30.15467,-95.45526,,,
,1300 Riley Fuzzel Road Spring TX 77386,30.09591,-95.40096,,,
,13159 Walden Road Montgomery TX 77356,30.39898,-95.62522,,,
,13229 Highway 105 West Conroe TX 77304,30.34541,-95.56099,,,
,13475 FM 1485 Conroe TX 77306,30.25494,-95.30957,,,
,13621 Lake Breeze Lane Willis TX 77318,30.42083,-95.56065,,,
,14350 FM 1488 Magnolia TX 77354,30.22816,-95.68738,,,
,14535 Allendale Lane Conroe TX 77302,30.20654,-95.35487,,,
,14796 Highway 105 East Conroe TX 77306,30.32563,-95.3897,,,
,14865 County Line Road Willis TX 77378,30.43303,-95.33258,,,
,15200 FM 1485 Conroe TX 77306,30.22877,-95.29138,,,
,15341 Lake Lamond Road Conroe TX 77384,30.23238,-95.5057,,,
,15636 FM 3083 Grangerland TX 77302,30.25459,-95.33445,,,
,15917 Highway 105 West Montgomery TX 77356,30.3728,-95.63393,,,
,16135 IH-45 South The Woodlands TX 77385,30.22181,-95.45346,,,
,16780 Needham Road Conroe TX 77385,30.21063,-95.41973,,,
,18690 Cumberland Boulevard Porter TX 77365,30.1319,-95.28917,,,
,18760 Highway 105 East Cleveland TX 77328,30.32906,-95.27719,,,
,19256 FM 1484 Conroe TX 77303,30.33464,-95.32979,,,
,19380 Highway 105 W. Montgomery TX 77356,30.38462,-95.66236,,,
,200 Academy Drive Conroe TX 77301,30.33384,-95.45196,,,
,200 Bentwater Harbor Drive Montgomery TX 77356,30.43199,-95.61258,,,
,20240 Bays Chapel Road Richards TX 77873,30.54531,-95.8113,,,
,20501 FM 1485 New Caney TX 77357,30.15631,-95.21996,,,
,206 Scarborough Drive Conroe TX 77304,30.289,-95.46824,,,
,20639 FM 2854 Montgomery TX 77316,30.35719,-95.66225,,,
,21111 Royal Crossing Drive Kingwood TX 77339,30.05789,-95.24396,,,
,21675A McCleskey Road New Caney TX 77357,30.1434,-95.24025,,,
,21700 Valley Ranch Crossing Drive Porter TX 77365,30.12151,-95.23744,,,
,2235 Lake Robbins Drive The Woodlands TX 77380,30.16206,-95.46787,,,
,22388 Ford Road Porter TX 77365,30.09637,-95.22869,,,
,22500 Eagle Drive New Caney TX 77357,30.13227,-95.22165,,,
,23419 FM 2090 Splendora TX 77372,30.23391,-95.15844,,,
,2375 Montgomery Park Boulevard Conroe TX 77304,30.33654,-95.4881,,,
,24160 Briar Berry Lane Porter TX 77365,30.09638,-95.25375,,,
,251 Central Pine Street Montgomery TX 77316,30.28045,-95.55374,,,
,25425 FM 1485 East New Caney TX 77357,30.1476,-95.17604,,,
,26175 FM 2090 Splendora TX 77372,30.23391,-95.15844,,,
,2655 FM 1488 Conroe TX 77384,30.22986,-95.50417,,,
,27035 Nichols Sawmill Road Magnolia TX 77355,30.13942,-95.75392,,,
,27330 Oak Ridge School Road Oak Ridge North TX 77385,30.17005,-95.44361,,,
,27427 Decker Prairie Rosehill Road Magnolia TX 77355,30.12933,-95.65895,,,
,27434 Robinson Road Oak Ridge North TX 77385,30.15676,-95.43685,,,
,27505 Glen Loch Drive The Woodlands TX 77381,30.15262,-95.49572,,,
,2760 Northridge Forest Dr. Spring TX 77386,30.1448,-95.39878,,,
,28747 Hardin Store Road Magnolia TX 77354,30.1742,-95.60662,,,
,28830 Birnham Woods Drive Spring TX 77386,30.11788,-95.38359,,,
,29327 South Plum Creek Drive Spring TX 77386,30.115,-95.41494,,,
,29955 I-45 North Shenandoah TX 77381,30.18495,-95.45362,,,
,30405 Dobbin Huffsmith Road Magnolia TX 77354,30.18888,-95.63631,,,
,31120 Imperial Oaks Boulevard Spring TX 77386,30.14017,-95.40798,,,
,31150 Birnham Woods Drive Spring TX 77386,30.14236,-95.38496,,,
,31355 Friendship Drive Magnolia TX 77355,30.19357,-95.72945,,,
,3200 West Davis Street Conroe TX 77304,30.32326,-95.48368,,,
,32434 Decker Prairie Road Magnolia TX 77355,30.13419,-95.66272,,,
,3434 Royal Oaks Drive Spring TX 77380,30.13977,-95.4939,,,
,3515 Waterbend Cove Spring TX 77386,30.10947,-95.37972,,,
,3601 South Loop 336 East Conroe TX 77301,30.29854,-95.40437,,,
,401 Sgt. Ed Holcomb Boulevard South Conroe TX 77304,30.30286,-95.48197,,,
,403 Cannon Ball Drive Spring TX 77380,30.13266,-95.44988,,,
,406 Mackintosh Drive Magnolia TX 77354,30.22912,-95.55536,,,
,422 Melton Street Magnolia TX 77354,30.20986,-95.75012,,,
,42202 FM 1774 Magnolia TX 77355,30.22031,-95.76678,,,
,4407 South Panther Creek Drive The Woodlands TX 77381,30.16298,-95.50826,,,
,4909 West Alden Bridge Drive The Woodlands TX 77382,30.2035,-95.52075,,,
,4920 West Panther Creek Drive The Woodlands TX 77381,30.1679,-95.49938,,,
,500 Royston Drive Kingwood TX 77339,30.05592,-95.26025,,,
,5000 Research Forest Drive The Woodlands TX 77381,30.1874,-95.48804,,,
,507 Dr. Martin L. King Jr. Place North Conroe TX 77301,30.30446,-95.44704,,,
,5301 Shadowbend Place The Woodlands TX 77381,30.17863,-95.5032,,,
,5310 Research Forest Drive The Woodlands TX 77381,30.19382,-95.49114,,,
,58 A Woodbranch Drive New Caney TX 77357,30.18757,-95.19246,,,
,600 Gerald Street Willis TX 77378,30.4304,-95.4913,,,
,6020 Shadowbend Place The Woodlands TX 77381,30.18459,-95.49288,,,
,6111 North Ossineke Drive Spring TX 77386,30.08374,-95.33708,,,
,67 1/2 April Wind Drive South Montgomery TX 77356,30.36535,-95.61365,,,
,680 Fish Creek Thoroughfare Montgomery TX 77316,30.29263,-95.57869,,,
,6800 Alden Bridge Drive The Woodlands TX 77382,30.21964,-95.52149,,,
,695 South FM 1486 Montgomery TX 77316,30.35632,-95.77609,,,
,7332 Cochrans Crossing Drive The Woodlands TX 77381,30.19865,-95.51119,,,
,7420 Crownridge Drive The Woodlands TX 77382,30.21123,-95.51747,,,
,8125 Ashlane Way The Woodlands TX 77382,30.18141,-95.56155,,,
,8909 FM 1488 Magnolia TX 77354,30.22013,-95.59749,,,
,9001 Cochrans Crossing Drive The Woodlands TX 77381,30.19698,-95.52805,,,
,9055 Airport Road Conroe TX 77303,30.34888,-95.42986,,,
,99 Hiwon Drive Panorama Village TX 77304,30.37972,-95.49636,,,
