name,address,lat,lon,Unnamed: 7,Unnamed: 8,Unnamed: 9
,"1500 MAJESTIC MEADOW DR GLENN HEIGHTS, TX 75154",32.56347,-96.88173,,,
,"1203 S CLARK RD CEDAR HILL, TX 75104",32.5655,-96.94196,,,
,"1020 LAKE RIDGE PKWY CEDAR HILL, TX 75104",32.56903,-97.00524,,,
,"310 E PARKERVILLE RD CEDAR HILL, TX 75104",32.57418,-96.93777,,,
,"600 EAGLE DR DESOTO, TX 75115",32.58059,-96.87062,,,
,"425 S COCKRELL HILL RD DESOTO, TX 75115",32.58338,-96.89199,,,
,"131 SIMS DR CEDAR HILL, TX 75104",32.58805,-96.93014,,,
,"200 E BELT LINE RD DESOTO, TX 75115",32.58884,-96.85487,,,
,"202 E. BELTLINE RD CEDAR HILL, TX 75104",32.58918,-96.93995,,,
,"101 DAVIDSON PLAZA WILMER, TX 75172",32.58978,-96.68497,,,
,"601 E BELT LINE RD DESOTO, TX 75115",32.59207,-96.84441,,,
,"218 N BROAD ST CEDAR HILL, TX 75104",32.59219,-96.95786,,,
,"531 W MAIN ST LANCASTER, TX 75146",32.59262,-96.76308,,,
,"285 UPTOWN BLVD CEDAR HILL, TX 75104",32.59323,-96.95084,,,
,"450 ROLLING HILLS PL LANCASTER, TX 75146",32.59696,-96.81375,,,
,"630 MILLBROOK DR LANCASTER, TX 75146",32.59739,-96.79776,,,
,"707 YOUNG BLVD DESOTO, TX 75115",32.60036,-96.86733,,,
,"1208 E PLEASANT RUN RD CEDAR HILL, TX 75104",32.60341,-96.91622,,,
,"822 W PLEASANT RUN RD LANCASTER, TX 75146",32.60491,-96.77161,,,
,"427 W PLEASANT RUN RD LANCASTER, TX 75146",32.60627,-96.76347,,,
,"901 N POLK ST DESOTO, TX 75115",32.60661,-96.84163,,,
,"1016 THE MEADOWS PKWY DESOTO, TX 75115",32.60784,-96.83033,,,
,"1600 VETERANS MEMORIAL PKWY LANCASTER, TX",32.60902,-96.75739,,,
,"1533 HIGH POINTE LN CEDAR HILL, TX 75104",32.62279,-96.95522,,,
,"1903 BLUERIDGE DR DUNCANVILLE, TX 75137",32.6231,-96.90426,,,
,"510 SOFTWOOD DR DUNCANVILLE, TX 75137",32.62416,-96.92002,,,
,"2929 MARQUIS LN LANCASTER, TX 75134",32.62441,-96.80384,,,
,"3030 N DALLAS AVE LANCASTER, TX 75134",32.62567,-96.76404,,,
,"9339 S POLK ST DALLAS, TX 75232",32.6354,-96.84106,,,
,"1007 SPRINGWOOD LN DUNCANVILLE, TX 75137",32.64105,-96.93125,,,
,"6801 MOUNTAIN CREEK PKWY DALLAS, TX 75249",32.64161,-96.95577,,,
,"8601 WILLOUGHBY BLVD DALLAS, TX 75232",32.64349,-96.83028,,,
,"108 E FARMERS RD SEAGOVILLE, TX 75159",32.64593,-96.54344,,,
,"2817 CHERRY VALLEY BLVD DALLAS, TX 75241",32.64594,-96.77569,,,
,"1040 W WHEATLAND RD DUNCANVILLE, TX 75116",32.64629,-96.93207,,,
,"323 W WHEATLAND RD DUNCANVILLE, TX 75116",32.64636,-96.91345,,,
,"2020 WHEATLAND RD DALLAS, TX 75232",32.64655,-96.85068,,,
,"530 E FREEMAN ST DUNCANVILLE, TX 75116",32.64837,-96.90096,,,
,"201 JAMES COLLINS BLVD DUNCANVILLE, TX 75116",32.649,-96.90744,,,
,"321 N MAIN ST HUTCHINS, TX 75141",32.64969,-96.71365,,,
,"302 E FREEMAN ST DUNCANVILLE, TX 75116",32.65049,-96.9054,,,
,"6102 MOUNTAIN CREEK PKWY DALLAS, TX 75249",32.65062,-96.966,,,
,"201 W CENTER ST DUNCANVILLE, TX 75116",32.652,-96.91073,,,
,"7808 RACINE DR DALLAS, TX 75232",32.65331,-96.83548,,,
,"1501 COFFEYVILLE TRL GRAND PRAIRIE, TX 75052",32.65376,-97.02229,,,
,"702 N HWY 175 SEAGOVILLE, TX 75159",32.65471,-96.56282,,,
,"1902 PALMER TRL GRAND PRAIRIE, TX 75052",32.65508,-97.03002,,,
,"3150 BAINBRIDGE AVE DALLAS, TX 75237",32.65605,-96.86341,,,
,"4729 S CARRIER PKWY GRAND PRAIRIE, TX 75052",32.65657,-97.00493,,,
,"5520 LANGDON RD DALLAS, TX 75241",32.65739,-96.73032,,,
,"7071 BONNIE VIEW RD DALLAS, TX 75241",32.65948,-96.75316,,,
,"7300 UNIVERSITY HILLS BLVD DALLAS, TX 75241",32.65961,-96.80363,,,
,"900 W CAMP WISDOM RD DUNCANVILLE, TX 75116",32.66032,-96.92964,,,
,"4616 BARDIN RD GRAND PRAIRIE, TX 75052",32.66096,-96.99408,,,
,"6700 WANDT DR DALLAS, TX 75236",32.66503,-96.92854,,,
,"6661 GREENSPAN AVE DALLAS, TX 75232",32.66588,-96.82966,,,
,"101 E FAIRMEADOWS DR DUNCANVILLE, TX 75116",32.66667,-96.90444,,,
,"760 BARDIN RD GRAND PRAIRIE, TX 75052",32.66742,-97.01444,,,
,"1909 CROUCH RD DALLAS, TX 75241",32.6703,-96.79348,,,
,"6200 BONNIE VIEW RD DALLAS, TX 75241",32.67085,-96.76016,,,
,"6000 SOUTH HAMPTON RD  DALLAS, TX 75232",32.67407,-96.85622,,,
,"1000 E REDBIRD LN DALLAS, TX 75241",32.67455,-96.80835,,,
,"6011 OLD OX RD DALLAS, TX 75241",32.67469,-96.7978,,,
,"3800 SIMPSON STUART RD DALLAS, TX 75241",32.67526,-96.75664,,,
,"10210 TEAGARDEN RD DALLAS, TX 75217",32.6753,-96.64605,,,
,"5725 S MARSALIS AVE DALLAS, TX 75241",32.67708,-96.8153,,,
,"1303 REYNOLDSTON LN DALLAS, TX 75232",32.67742,-96.84214,,,
,"5505 S POLK ST DALLAS, TX 75232",32.67954,-96.841,,,
,"3722 BLACK OAK DR DALLAS, TX 75241",32.67989,-96.76253,,,
,"724 GREEN COVE LN DALLAS, TX 75232",32.68388,-96.83309,,,
,"1515 EDD RD DALLAS, TX 75253",32.68547,-96.60352,,,
,"3410 KIRBY CREEK DR GRAND PRAIRIE, TX 75052",32.68863,-97.00841,,,
,"2543 E LEDBETTER DR DALLAS, TX 75216",32.6917,-96.77889,,,
,"3030 STAG RD DALLAS, TX 75241",32.6918,-96.76479,,,
,"4010 IDAHO AVE DALLAS, TX 75216",32.69455,-96.81132,,,
,"2121 TOSCA LN DALLAS, TX 75224",32.69516,-96.85344,,,
,"3333 SPRAGUE DR DALLAS, TX 75233",32.69663,-96.87632,,,
,"3815 S FRANKLIN ST DALLAS, TX 75233",32.69673,-96.86157,,,
,"4203 S LANCASTER RD DALLAS, TX 75216",32.69799,-96.79577,,,
,"2914 CUMMINGS ST DALLAS, TX 75216",32.69814,-96.77306,,,
,"8805 FIRESIDE DR DALLAS, TX 75217",32.69833,-96.66828,,,
,"3601 S MARSALIS AVE DALLAS, TX 75216",32.69988,-96.81668,,,
,"253 W LAWSON RD DALLAS, TX 75253",32.70012,-96.57585,,,
,"444 FAWN RIDGE DR DALLAS, TX 75224",32.70062,-96.83066,,,
,"511 E SPRINGDALE LN GRAND PRAIRIE, TX 75052",32.70214,-96.99701,,,
,"637 EDGEWORTH DR DALLAS, TX 75217",32.70225,-96.6365,,,
,"2800 REFORMA DR GRAND PRAIRIE, TX 75052",32.70249,-96.98954,,,
,"3410 S POLK ST DALLAS, TX 75224",32.70266,-96.83956,,,
,"4200 BONNIE VIEW RD DALLAS, TX 75216",32.7084,-96.77387,,,
,"3031 S BECKLEY AVE DALLAS, TX 75224",32.70862,-96.82405,,,
,"3000 MARYLAND AVE DALLAS, TX 75216",32.70864,-96.81224,,,
,"7720 GAYGLEN DR DALLAS, TX 75217",32.70894,-96.68929,,,
,"3080 S HAMPTON RD DALLAS, TX 75224",32.70992,-96.85428,,,
,"9733 OLD SEAGOVILLE RD DALLAS, TX 75217",32.71039,-96.65379,,,
,"4372 SHEPHERD LN BALCH SPRINGS, TX 75180",32.71051,-96.6133,,,
,"4600 SOLAR LN DALLAS, TX 75216",32.71086,-96.7446,,,
,"2001 DEER PATH DR DALLAS, TX 75216",32.71114,-96.79533,,,
,"14401 SPRING OAKS DR BALCH SPRINGS, TX 75180",32.71409,-96.59861,,,
,"2008 EAST KIEST BLVD DALLAS, TX 75216",32.71484,-96.79042,,,
,"2727 KNOXVILLE ST DALLAS, TX 75211",32.71522,-96.90071,,,
,"2001 E KIEST BLVD DALLAS, TX 75216",32.71535,-96.79215,,,
,"2030 PROCTOR DR GRAND PRAIRIE, TX 75051",32.7173,-97.01299,,,
,"3700 S BELT LINE RD MESQUITE, TX 75181",32.71812,-96.59443,,,
,"12400 ELAM RD BALCH SPRINGS, TX 75180",32.71882,-96.6132,,,
,"2550 W ILLINOIS AVE DALLAS, TX 75233",32.71988,-96.86124,,,
,"3110 BONNIE VIEW RD DALLAS, TX 75216",32.72044,-96.78014,,,
,"7044 HODDE ST DALLAS, TX 75217",32.72081,-96.70225,,,
,"2121 S MARSALIS AVE DALLAS, TX 75216",32.72185,-96.81492,,,
,"1204 E MARSHALL DR GRAND PRAIRIE, TX 75051",32.72197,-96.98867,,,
,"650 HOLCOMB RD DALLAS, TX 75217",32.72237,-96.67283,,,
,"620 N ST AUGUSTINE RD DALLAS, TX 75217",32.72259,-96.65546,,,
,"2018 S MARSALIS AVE DALLAS, TX 75216",32.72306,-96.81406,,,
,"1220 NEWPORT AVE DALLAS, TX 75224",32.72501,-96.8431,,,
,"802 S BUCKNER BLVD DALLAS, TX 75217",32.72578,-96.68223,,,
,"3200 HICKORY TREE RD BALCH SPRINGS, TX 75180",32.72609,-96.62185,,,
,GPISD,32.72678,-96.98535,,,
,"1702 S DENLEY DR DALLAS, TX 75216",32.72699,-96.80508,,,
,"4849 W ILLINOIS AVE DALLAS, TX 75211",32.727,-96.90372,,,
,"1515 S RAVINIA DR DALLAS, TX 75211",32.72795,-96.87037,,,
,"3300 E CARTWRIGHT RD MESQUITE, TX 75181",32.73116,-96.55747,,,
,"1515 LYNN HAVEN AVE DALLAS, TX 75216",32.73231,-96.80241,,,
,"1218 PHINNEY AVE DALLAS, TX 75211",32.73248,-96.88712,,,
,"801 S.W. 19TH ST GRAND PRAIRIE, TX 75051",32.73306,-97.03002,,,
,"1111 MARTINDELL AVE DALLAS, TX 75211",32.73363,-96.8768,,,
,"7310 LAKE JUNE RD DALLAS, TX 75217",32.73372,-96.69564,,,
,"1151 S. EDGEFIELD AVE DALLAS, TX 75208",32.73461,-96.8449,,,
,"4125 W CLARENDON DR DALLAS, TX 75211",32.73535,-96.88834,,,
,"6000 KEENELAND PKWY DALLAS, TX 75211",32.73584,-96.92485,,,
,"425 ALICE DR GRAND PRAIRIE, TX 75051",32.7373,-97.00678,,,
,"2020 MOUSER ST DALLAS, TX 75203",32.73779,-96.79299,,,
,"2525 HELEN LANE MESQUITE, TX 75181",32.73806,-96.54515,,,
,"810 S LLEWELLYN AVE DALLAS, TX 75208",32.73836,-96.83171,,,
,"1403 MORRELL AVE DALLAS, TX 75203",32.73945,-96.80206,,,
,"1515 N JIM MILLER RD DALLAS, TX 75217",32.73981,-96.70158,,,
,"1625 N MASTERS DR DALLAS, TX 75217",32.74048,-96.64945,,,
,"2419 GLADSTONE DR DALLAS, TX 75211",32.74064,-96.85759,,,
,"7800 UMPHRESS ROAD DALLAS, TX 75217",32.74189,-96.68887,,,
,"601 E GRAND PRAIRIE RD GRAND PRAIRIE, TX 75051",32.74198,-96.99628,,,
,"410 S BECKLEY AVE DALLAS, TX 75203",32.74239,-96.82257,,,
,"3901 MEREDITH AVE DALLAS, TX 75211",32.74279,-96.88494,,,
,"3101 RAYDELL PL DALLAS, TX 75211",32.74287,-96.87292,,,
,"2627 DORRIS ST DALLAS, TX 75215",32.74296,-96.75214,,,
,"220 S EDGEFIELD AVE DALLAS, TX 75224",32.74358,-96.84386,,,
,"2021 W TENTH ST DALLAS, TX 75208",32.74539,-96.85243,,,
,"8928 PALISADE DR DALLAS, TX 75217",32.74556,-96.6679,,,
,"201 N ADAMS AVE DALLAS, TX 75208",32.74684,-96.83079,,,
,"2442 W JEFFERSON BLVD DALLAS, TX 75211",32.7474,-96.8583,,,
,"1502 COLLEGE ST GRAND PRAIRIE, TX 75050",32.74839,-97.02422,,,
,"10747 BRUTON RD DALLAS, TX 75217",32.74963,-96.64156,,,
,"1600 PEAR ST DALLAS, TX 75215",32.75009,-96.76688,,,
,"700 E 8TH ST DALLAS, TX 75203",32.75049,-96.81394,,,
,"1500 CREEK VALLEY RD MESQUITE, TX 75181",32.75049,-96.55265,,,
,"525 NE 15TH ST GRAND PRAIRIE, TX 75050",32.75161,-96.98703,,,
,"719 N MONTCLAIR AVE DALLAS, TX 75208",32.75175,-96.84695,,,
,"8915 GREENMOUND AVE DALLAS, TX 75227",32.75183,-96.66891,,,
,"900 RUTHERFORD DR MESQUITE, TX 75181",32.75266,-96.57579,,,
,"711 W CANTY ST DALLAS, TX 75208",32.75384,-96.83496,,,
,"9560 HIGHFIELD DR DALLAS, TX 75227",32.75487,-96.65788,,,
,"1100 N CARRIER PKWY GRAND PRAIRIE, TX 75050",32.75622,-97.01837,,,
,"2826 ELSIE FAYE HEGGINS ST DALLAS, TX 75215",32.75647,-96.75188,,,
,"2444 GRAHAM ST GRAND PRAIRIE, TX 75050",32.75696,-96.96831,,,
,"7900 HUME DRIVE DALLAS, TX 75227",32.7577,-96.68604,,,
,"2500 ROMINE AVE DALLAS, TX 75215",32.75895,-96.76347,,,
,"1300 N JUSTIN AVE DALLAS, TX 75211",32.75912,-96.91026,,,
,"2615 W COLORADO BLVD DALLAS, TX 75211",32.76017,-96.86471,,,
,"1215 TURNER AVE DALLAS, TX 75208",32.76041,-96.83973,,,
,"1817 WARREN AVE DALLAS, TX 75215",32.76082,-96.77291,,,
,"2500 MEMORIAL PKWY MESQUITE, TX 75149",32.76153,-96.63561,,,
,"3306 CARPENTER AVE DALLAS, TX 75215",32.76278,-96.74983,,,
,"101 HOLLEY PARK DR MESQUITE, TX 75149",32.76379,-96.59957,,,
,"6459 SCYENE RD DALLAS, TX 75227",32.76381,-96.70998,,,
,"300 EAST DAVIS ST MESQUITE, TX 75149",32.76504,-96.59501,,,
,"1400 WALMSLEY AVE DALLAS, TX 75208",32.76889,-96.84407,,,
,"2102 N CARRIER PKWY GRAND PRAIRIE, TX 75050",32.76915,-97.02179,,,
,"200 CLARY DR MESQUITE, TX 75149",32.77024,-96.63602,,,
,"2922 MARTIN LUTHER KING BLVD DALLAS, TX 75215",32.77054,-96.766,,,
,"8233 MILITARY PKWY DALLAS, TX 75227",32.77074,-96.67801,,,
,"3000 MLK BLVD DALLAS, TX 75215",32.77131,-96.76483,,,
,"757 N GALLOWAY AVE MESQUITE, TX 75149",32.77395,-96.59997,,,
,"1718 ROBERT B CULLUM BLVD DALLAS, TX 75210",32.77398,-96.76048,,,
,"6901 MILITARY PKWY DALLAS, TX 75227",32.77423,-96.70158,,,
,"1515 YOUNG ST DALLAS, TX 75201",32.77847,-96.79717,,,
,"801 MAIN ST DALLAS, TX 75202",32.77979,-96.80521,,,
,"7777 FORNEY ROAD DALLAS, TX 75227",32.78005,-96.69121,,,
,"3212 N. WINNETKA AVE DALLAS, TX 75212",32.78095,-96.83871,,,
,"2200 DENNISON ST DALLAS, TX 75212",32.78166,-96.8594,,,
,"3407 N WESTMORELAND RD DALLAS, TX 75212",32.783,-96.87426,,,
,"2701 SYBIL DR MESQUITE, TX 75149",32.78463,-96.63809,,,
,"6006 EVERGLADE RD DALLAS, TX 75227",32.78482,-96.69961,,,
,"4918 HOVENKAMP DR DALLAS, TX 75227",32.78497,-96.70663,,,
,"1701 HILLCREST ST MESQUITE, TX 75149",32.78648,-96.60812,,,
,"4500 BERNAL DR DALLAS, TX 75212",32.78687,-96.894,,,
,"1952 BAYSIDE ST DALLAS, TX 75212",32.78806,-96.85239,,,
,"4033 ELM ST DALLAS, TX 75226",32.78938,-96.77182,,,
,"1900 S STORY RD IRVING, TX 75060",32.79004,-96.97604,,,
,"2100 CREST PARK DR MESQUITE, TX 75149",32.7903,-96.61388,,,
,"5710 E R L THORNTON FRWY DALLAS, TX 75223",32.79068,-96.74349,,,
,"127 N COLLINS RD SUNNYVALE, TX 75182",32.79151,-96.56241,,,
,"2501 FLORA ST DALLAS, TX 75201",32.79169,-96.79679,,,
,"100 W OAKDALE RD IRVING, TX 75060",32.7928,-96.94708,,,
,"4105 JUNIUS ST DALLAS, TX 75246",32.79345,-96.77588,,,
,"1355 ADAIR ST DALLAS, TX 75204",32.79391,-96.78397,,,
,"1901 IRVING BLVD DALLAS, TX 75207",32.794,-96.82702,,,
,"6200 EAST GRAND AVE DALLAS, TX 75223",32.79749,-96.7415,,,
,"2424 LARCHMONT DR MESQUITE, TX 75150",32.79933,-96.63734,,,
,"4060 EMERALD DR MESQUITE, TX 75150",32.8005,-96.6592,,,
,"2444 TELEGRAPH AVE DALLAS, TX 75228",32.80113,-96.70647,,,
,"3505 MAPLE AVE DALLAS, TX 75219",32.80163,-96.81247,,,
,"2701 CHISOLM TRAIL MESQUITE, TX 75150",32.80356,-96.61714,,,
,"1710 N CARROLL AVE DALLAS, TX 75204",32.80372,-96.78065,,,
,"631 EDMONDSON DR IRVING, TX 75060",32.80525,-96.93928,,,
,"2501 W TENTH ST IRVING, TX 75060",32.80624,-96.97979,,,
,"7420 LA VISTA DR DALLAS, TX 75214",32.80659,-96.73142,,,
,"3313 GILBERT RD GRAND PRAIRIE, TX 75050",32.80672,-97.0056,,,
,"3300 POTEET DR MESQUITE, TX 75150",32.80735,-96.60984,,,
,"1451 JOHN WEST ROAD DALLAS, TX 75228",32.80762,-96.69281,,,
,"4528 RUSK AVE DALLAS, TX 75204",32.80771,-96.78458,,,
,"3037 GREENMEADOW DR DALLAS, TX 75228",32.80803,-96.69481,,,
,"3014 OAK LAWN AVE DALLAS, TX 75219",32.80831,-96.80847,,,
,"2221 LUCAS DR DALLAS, TX 75219",32.80878,-96.82658,,,
,"3000 CONCORD DR MESQUITE, TX 75150",32.80934,-96.644,,,
,"1802 MOSER AVE DALLAS, TX 75206",32.80984,-96.77424,,,
,"3120 N HASKELL AVE DALLAS, TX 75204",32.81031,-96.7949,,,
,"6121 WORTH STREET DALLAS, TX 75214",32.81037,-96.75337,,,
,"4100 CEDAR SPRINGS RD DALLAS, TX 75219",32.81239,-96.81241,,,
,"219 CRANDALL RD IRVING, TX 75060",32.81289,-96.98349,,,
,"825 W IRVING BLVD IRVING, TX 75060",32.8139,-96.95564,,,
,"1811 GROSS RD DALLAS, TX 75228",32.81575,-96.68336,,,
,"4200 MCKINNEY AVE DALLAS, TX 75205",32.81643,-96.79051,,,
,"1505 RECORD CROSSING RD DALLAS, TX 75235",32.81713,-96.85817,,,
,"1015 GREEN CANYON DR MESQUITE, TX 75150",32.81719,-96.61163,,,
,"4010 CORYELL WAY MESQUITE, TX 75150",32.81739,-96.62132,,,
,"6045 BELMONT AVE DALLAS, TX 75206",32.81763,-96.7619,,,
,"310 DAVIS DR IRVING, TX 75061",32.81833,-96.99974,,,
,"3719 MOON DR MESQUITE, TX 75150",32.81877,-96.65454,,,
,"101 E. UNION BOWER RD IRVING, TX 75061",32.82167,-96.94592,,,
,"2707 ABRAMS ROAD DALLAS, TX 75214",32.82226,-96.75332,,,
,"1200 E UNION BOWER RD IRVING, TX 75061",32.82243,-96.93085,,,
,"2931 CONFLANS RD IRVING, TX 75061",32.82291,-96.98602,,,
,"900 N O'CONNOR ROAD IRVING, TX 75061",32.8236,-96.94842,,,
,"2911 DELMAR AVE DALLAS, TX 75206",32.82453,-96.76655,,,
,"1450 OLD GATE LANE DALLAS, TX 75218",32.8248,-96.70341,,,
,"2611 HEALEY DR DALLAS, TX 75228",32.82579,-96.66949,,,
,"3000 HILLBROOK ST DALLAS, TX 75214",32.82596,-96.744,,,
,"9565 MERCER DRIVE DALLAS, TX 75228",32.826,-96.69347,,,
,"3120 INWOOD RD DALLAS, TX 75235",32.82625,-96.82936,,,
,"2101 MILLMAR DR DALLAS, TX 75228",32.82687,-96.67979,,,
,"3204 SKILLMAN ST DALLAS, TX 75206",32.82738,-96.76094,,,
,"1306 N. STORY RD IRVING, TX 75061",32.82764,-96.97599,,,
,"517 VIA AVENIDA MESQUITE, TX 75150",32.82785,-96.60404,,,
,"3230 KARLA DR MESQUITE, TX 75150",32.82794,-96.64561,,,
,"2501 WHITSON WAY MESQUITE, TX 75150",32.829,-96.63638,,,
,"4711 WESTSIDE DR DALLAS, TX 75209",32.82966,-96.81982,,,
,"1800 PLYMOUTH DR W IRVING, TX 75061",32.83027,-96.96881,,,
,"1600 N IRVING HEIGHTS DR IRVING, TX 75061",32.8316,-96.92674,,,
,"6920 BOB-O-LINK DR DALLAS, TX 75214",32.8317,-96.74175,,,
,"7780 HARRY HINES BLVD DALLAS, TX 75235",32.83218,-96.85893,,,
,"5470 ELLSWORTH AVE DALLAS, TX 75206",32.83316,-96.77487,,,
,"3600 CORNELL AVE DALLAS, TX 75205",32.83406,-96.79131,,,
,"3030 GUS THOMASSON RD DALLAS, TX 75228",32.83429,-96.66605,,,
,"2431 HANCOCK ST IRVING, TX 75061",32.8351,-96.97813,,,
,"4300 SOUTHERN AVE DALLAS, TX 75225",32.83614,-96.80799,,,
,"10122 LOSA DR DALLAS, TX 75218",32.83724,-96.69155,,,
,"3520 GUTHRIE RD GARLAND, TX 75043",32.83835,-96.578,,,
,"3555 GRANADA AVE DALLAS, TX 75205",32.84022,-96.79098,,,
,"2801 RUTGERS DR IRVING, TX 75062",32.84271,-96.98476,,,
,"6911 VICTORIA AVE DALLAS, TX 75209",32.84279,-96.83163,,,
,"2730 CHEYENNE ST IRVING, TX 75062",32.84307,-97.0034,,,
,"10910 FERGUSON RD DALLAS, TX 75228",32.8446,-96.66143,,,
,"4619 W UNIVERSITY BLVD DALLAS, TX 75209",32.84512,-96.83036,,,
,"2800 HILLCREST DR IRVING, TX 75062",32.84521,-96.96529,,,
,"2100 N FAROLA DR DALLAS, TX 75228",32.8457,-96.67537,,,
,"6818 FISHER ROAD DALLAS, TX 75214",32.84644,-96.74342,,,
,"630 STROUD LN GARLAND, TX 75043",32.84742,-96.62398,,,
,"11110 SHILOH RD DALLAS, TX 75228",32.84789,-96.66544,,,
,"11221 LOCHWOOD BLVD DALLAS, TX 75218",32.84836,-96.68823,,,
,"1600 FINLEY RD IRVING, TX 75062",32.84962,-96.96621,,,
,"9720 WATERVIEW  RD DALLAS, TX 75218",32.84985,-96.70922,,,
,"126 CREEKVIEW DR GARLAND, TX 75043",32.85013,-96.60595,,,
,"2700 FINLEY RD IRVING, TX 75062",32.85025,-96.98174,,,
,"3333 N MACARTHUR BLVD IRVING, TX 75062",32.85036,-96.96076,,,
,"7015 WESTCHESTER DR DALLAS, TX 75205",32.8507,-96.80709,,,
,"6121 E LOVERS LANE DALLAS, TX 75214",32.85133,-96.75927,,,
,"5314 ABRAMS RD DALLAS, TX 75214",32.85161,-96.75233,,,
,"1600 CARLISLE ST IRVING, TX 75062",32.85313,-96.96621,,,
,"3700 N MACARTHUR BLVD IRVING, TX 75062",32.85402,-96.95648,,,
,"4518 POMONA RD DALLAS, TX 75209",32.85495,-96.83142,,,
,"4845 BROADWAY BLVD GARLAND, TX 75043",32.85522,-96.60245,,,
,"11230 LIPPITT AVE DALLAS, TX 75218",32.8554,-96.68829,,,
,"5200 BROADMOOR GARLAND, TX 75043",32.85553,-96.63984,,,
,"700 BIRCHWOOD DR GARLAND, TX 75043",32.85637,-96.63542,,,
,"3601 CHEYENNE ST IRVING, TX 75062",32.85637,-97.00315,,,
,"4349 WATERHOUSE BLVD GARLAND, TX 75043",32.85645,-96.56704,,,
,"505 EASTON RD DALLAS, TX 75218",32.85664,-96.7045,,,
,"5707 SKILLMAN ST DALLAS, TX 75206",32.8577,-96.75651,,,
,"6929 TOWN NORTH DR DALLAS, TX 75231",32.85848,-96.74037,,,
,"4024 CARUTH BLVD DALLAS, TX 75225",32.85922,-96.80303,,,
,"3033 W COUNTRY CLUB RD IRVING, TX 75038",32.86085,-96.98661,,,
,"4655 S COUNTRY CLUB RD GARLAND, TX 75043",32.86104,-96.59018,,,
,"650 E LAS COLINAS BLVD IRVING, TX 75039",32.86112,-96.92772,,,
,"626 NICKENS RD GARLAND, TX 75043",32.86657,-96.61188,,,
,"9200 INWOOD RD DALLAS, TX 75220",32.86676,-96.8207,,,
,"1811 MAYFIELD AVE GARLAND, TX 75041",32.86717,-96.65504,,,
,"4601 N MACARTHUR BLVD IRVING, TX 75038",32.86775,-96.96185,,,
,"1115 MAYFIELD AVE GARLAND, TX 75041",32.86873,-96.64473,,,
,"3700 CLOVER LANE DALLAS, TX 75220",32.86984,-96.8542,,,
,"8939 WHITEWING LN DALLAS, TX 75238",32.87044,-96.68754,,,
,"7500 PARK LANE DALLAS, TX 75225",32.87057,-96.77722,,,
,"7001 FAIR OAKS AVE DALLAS, TX 75231",32.87242,-96.76058,,,
,"5814 RIDGECREST RD DALLAS, TX 75231",32.87244,-96.76208,,,
,"600 COLONEL DR GARLAND, TX 75043",32.87289,-96.61823,,,
,"7611 PARK LANE DALLAS, TX 75225",32.873,-96.77525,,,
,"5001 N MACARTHUR BLVD IRVING, TX 75038",32.87521,-96.9626,,,
,"9501 FERNDALE RD DALLAS, TX 75238",32.87638,-96.70918,,,
,"3200 KINKAID DR DALLAS, TX 75220",32.87674,-96.86894,,,
,"1330 COLONEL DR GARLAND, TX 75043",32.87853,-96.61121,,,
,"7101 WINEDALE DR DALLAS, TX 75231",32.87949,-96.73984,,,
,"10301 WALNUT HILL LN DALLAS, TX 75238",32.87949,-96.70804,,,
,"10101 WALNUT HILL LANE DALLAS, TX 75238",32.87959,-96.70906,,,
,"9990 WEBB CHAPEL RD DALLAS, TX 75220",32.88004,-96.86484,,,
,"6315 WALNUT HILL LN DALLAS, TX 75230",32.88058,-96.79717,,,
,"6423 WALNUT HILL LN DALLAS, TX",32.88064,-96.796,,,
,"10011 MIDWAY RD DALLAS, TX 75229",32.88086,-96.8391,,,
,"2825 S FIRST ST GARLAND, TX 75041",32.88246,-96.6315,,,
,"9921 KIRKHAVEN DR DALLAS, TX 75238",32.88377,-96.70779,,,
,"9940 WHITE ROCK TRAIL DALLAS, TX 75238",32.88464,-96.72924,,,
,"10059 RAVENSWAY DR DALLAS, TX 75238",32.88545,-96.72005,,,
,"6920 MEADOW RD DALLAS, TX 75230",32.88601,-96.78579,,,
,"5715 MEADERS LN DALLAS, TX 75229",32.88692,-96.80956,,,
,"2601 DAIRY ROAD GARLAND, TX 75041",32.88692,-96.62331,,,
,"9449 CHURCH ROAD DALLAS, TX 75238",32.8878,-96.72682,,,
,"8307 MEADOW RD DALLAS, TX 75231",32.88794,-96.76153,,,
,"3033 MERRELL RD DALLAS, TX 75229",32.88842,-96.87506,,,
,"2232 SUSSEX DR GARLAND, TX 75041",32.88963,-96.66156,,,
,"7500 MILLER RD ROWLETT, TX 75088",32.89091,-96.52914,,,
,"3315 CARLA DR ROWLETT, TX 75088",32.89182,-96.57534,,,
,"10716 MARSH LANE DALLAS, TX 75229",32.8941,-96.85558,,,
,"9202 MOSS FARM LANE DALLAS, TX 75243",32.89551,-96.74364,,,
,"6501 ROYAL LN DALLAS, TX 75230",32.89593,-96.79215,,,
,"10801 AUDELIA RD DALLAS, TX 75238",32.89662,-96.71832,,,
,"1821 OLD GATE LANE GARLAND, TX 75042",32.89714,-96.65642,,,
,"1125 BEVERLY DR GARLAND, TX 75040",32.89731,-96.61597,,,
,"11001 MIDWAY RD DALLAS, TX 75229",32.89755,-96.83883,,,
,"1520 CUMBERLAND DR GARLAND, TX 75040",32.89882,-96.62557,,,
,"4500 SKYLINE DR ROWLETT, TX 75088",32.90101,-96.56168,,,
,"11211 PRESTON RD DALLAS, TX 75230",32.9013,-96.80462,,,
,"7131 MIDBURY DR DALLAS, TX 75230",32.90166,-96.78346,,,
,"9373 WHITEHURST DR DALLAS, TX 75243",32.90201,-96.7397,,,
,"9229 MEADOWKNOLL DR DALLAS, TX 75243",32.90269,-96.73389,,,
,"3959 NORTHAVEN RD DALLAS, TX 75229",32.90281,-96.84607,,,
,"3453 FLAIR DR DALLAS, TX 75229",32.90375,-96.8617,,,
,"3003 NORTHAVEN ROAD DALLAS, TX 75229",32.90446,-96.87729,,,
,"9550 SHEPHERD RD DALLAS, TX 75243",32.90611,-96.74982,,,
,"1310 W AVE F GARLAND, TX 75040",32.90636,-96.64703,,,
,"6525 FOREST LANE DALLAS, TX 75230",32.91007,-96.79349,,,
,"3421 FOREST LANE DALLAS, TX 75234",32.91009,-96.86349,,,
,"3838 CROWN SHORE DR DALLAS, TX 75244",32.9121,-96.85058,,,
,"6200 DEXHAM RD ROWLETT, TX 75089",32.91492,-96.58301,,,
,"12300 PLEASANT VALLEY DR DALLAS, TX 75243",32.91494,-96.72256,,,
,"2200 KINWEST PKWY IRVING, TX 75063",32.91557,-96.9783,,,
,"6906 CHURCHILL WAY DALLAS, TX 75230",32.91648,-96.78575,,,
,"4030 CALCULUS RD DALLAS, TX 75244",32.91696,-96.84461,,,
,GARLAND CAMPUS,32.91703,-96.63852,,,
,"8301 TOWNS STREET DALLAS, TX 75243",32.91709,-96.7591,,,
,"2223 KINWEST PARKWAY IRVING, TX 75063",32.91723,-96.97869,,,
,"12701 TEMPLETON TRAIL DALLAS, TX 75234",32.91878,-96.86563,,,
,"12600 AUDELIA RD DALLAS, TX 75243",32.9195,-96.71533,,,
,"6201 DANRIDGE RD ROWLETT, TX 75089",32.91958,-96.53324,,,
,"1146 CASTLE DR GARLAND, TX 75040",32.92095,-96.61731,,,
,"12600 WELCH RD DALLAS, TX 75244",32.92102,-96.82939,,,
,"3817 BUCKNELL DR GARLAND, TX 75042",32.92213,-96.68996,,,
,"9596 WALNUT ST DALLAS, TX 75243",32.92303,-96.72699,,,
,"1204 TRAVIS ST GARLAND, TX 75040",32.92331,-96.64485,,,
,"2536 VALLEY VIEW LN FARMERS BRANCH, TX 75234",32.92351,-96.89438,,,
,"1726 TRAVIS ST GARLAND, TX 75042",32.92361,-96.65396,,,
,"1626 BOSQUE DR GARLAND, TX 75040",32.92617,-96.60776,,,
,"8757 W. VALLEY RANCH PKWY IRVING, TX 75063",32.92626,-96.95933,,,
,"4100 TYNES DR GARLAND, TX 75042",32.92643,-96.69305,,,
,"1621 MCCALLUM DR GARLAND, TX 75042",32.92786,-96.67618,,,
,"3939 VALLEY VIEW LN FARMERS BRANCH, TX 75244",32.92828,-96.85022,,,
,"13551 DENNIS RD FARMERS BRANCH, TX 75234",32.92839,-96.89141,,,
,"201 RED RIVER TRL IRVING, TX 75063",32.93167,-96.94708,,,
,"550 PARK BEND DR RICHARDSON, TX 75081",32.93268,-96.72682,,,
,"13613 WEBB CHAPEL RD FARMERS BRANCH, TX 75234",32.93337,-96.87369,,,
,"13535 SPRING GROVE AVE DALLAS, TX 75240",32.93361,-96.77578,,,
,"401 CIMARRON TRL IRVING, TX 75063",32.93401,-96.95069,,,
,"1200 KINGSBRIDGE DR GARLAND, TX 75040",32.93441,-96.64544,,,
,"13630 COIT ROAD DALLAS, TX 75240",32.93509,-96.76822,,,
,"2301 SAM HOUSTON DR GARLAND, TX 75044",32.93525,-96.65808,,,
,"9800  RODEO DR IRVING, TX 75063",32.93732,-96.95594,,,
,"14050 HEARTSIDE PLACE FARMERS BRANCH, TX 75234",32.93738,-96.88006,,,
,"2783 VALWOOD PKWY FARMERS BRANCH, TX 75234",32.93864,-96.88533,,,
,"2510 N GLENBROOK DR GARLAND, TX 75040",32.93902,-96.63952,,,
,"1801 E SPRING VALLEY RD RICHARDSON, TX 75081",32.93911,-96.6903,,,
,"600 S GLENVILLE DR RICHARDSON, TX 75081",32.93944,-96.70542,,,
,"3815 SPRING VALLEY RD ADDISON, TX 75001",32.94183,-96.84984,,,
,"3131 MARS DR GARLAND, TX 75040",32.94351,-96.61298,,,
,"450 ABRAMS ROAD RICHARDSON, TX 75081",32.94433,-96.7269,,,
,"700 DOVER DR RICHARDSON, TX 75080",32.94452,-96.75919,,,
,"1700 S JOSEY LN CARROLLTON, TX 75006",32.9449,-96.89094,,,
,"14532 MEANDERING WAY DALLAS, TX 75254",32.9469,-96.77747,,,
,"5201 CELESTIAL RD DALLAS, TX 75254",32.94766,-96.81743,,,
,"1610 E CROSBY ROAD CARROLLTON, TX 75006",32.94805,-96.8997,,,
,"10201 LIBERTY GROVE RD ROWLETT, TX 75089",32.9487,-96.5253,,,
,"260 SOUTHWESTERN BLVD COPPELL, TX 75019",32.94871,-96.99819,,,
,"6990 BELT LINE RD DALLAS, TX 75254",32.94969,-96.78329,,,
,"701 W BELT LINE ROAD RICHARDSON, TX 75080",32.9502,-96.7448,,,
,"3950 BELTWAY DR ADDISON, TX 75001",32.95077,-96.84804,,,
,"3845 N GARLAND AVE GARLAND, TX 75044",32.95166,-96.65492,,,
,"101 N FLOYD RD RICHARDSON, TX 75080",32.95178,-96.7448,,,
,"300 N DOROTHY DR RICHARDSON, TX 75081",32.95194,-96.72239,,,
,"417 DARTMOUTH LN RICHARDSON, TX 75081",32.95399,-96.68904,,,
,"1510 SPRING CREEK DR GARLAND, TX 75040",32.95473,-96.65053,,,
,"7667 ROUNDROCK RD DALLAS, TX 75248",32.95642,-96.77658,,,
,"3114 PINEWOOD DR GARLAND, TX 75044",32.95694,-96.67708,,,
,"4405 HUDSON DR SACHSE, TX 75048",32.95892,-96.58126,,,
,"411 W ARAPAHO RD RICHARDSON, TX 75080",32.95994,-96.73167,,,
,"6525 LA COSA DR DALLAS, TX 75248",32.96018,-96.79508,,,
,"1300 CYPRESS DR RICHARDSON, TX 75080",32.96164,-96.76337,,,
,"300 MOCKINGBIRD LN COPPELL, TX 75019",32.96277,-96.96915,,,
,"272 S MACARTHUR BLVD COPPELL, TX 75019",32.96394,-96.95757,,,
,"200 S COPPELL RD COPPELL, TX 75019",32.96448,-97.00583,,,
,"4798 AIRPORT PKWY ADDISON, TX 75001",32.96571,-96.83033,,,
,"1900 E COLLINS BLVD RICHARDSON, TX 75081",32.96729,-96.69096,,,
,"1301 CUSTER RD RICHARDSON, TX 75080",32.96786,-96.73607,,,
,"1313 WEST SHORE DR RICHARDSON, TX 75080",32.96818,-96.74886,,,
,"3227 KELLER SPRINGS RD CARROLLTON, TX 75006",32.96947,-96.8449,,,
,"1700 N KELLER SPRINGS RD CARROLLTON, TX 75006",32.97065,-96.8935,,,
,"7643 LA MANGA DR DALLAS, TX 75248",32.97103,-96.776,,,
,"1500 MIMOSA DR RICHARDSON, TX 75080",32.97163,-96.76178,,,
,"1100 VILLAGE PKWY COPPELL, TX 75019",32.97227,-96.95891,,,
,"16500 SHADYBANK DR DALLAS, TX 75248",32.97365,-96.79065,,,
,"3301 W CAMPBELL RD GARLAND, TX 75044",32.97382,-96.67868,,,
,"1504 E CAMPBELL ROAD RICHARDSON, TX 75081",32.97402,-96.69614,,,
,"3815 SACHSE RD SACHSE, TX 75048",32.97404,-96.58488,,,
,"2808 RUNNING DUKE DR CARROLLTON, TX 75006",32.97406,-96.85696,,,
,"1820 N FLOYD ROAD RICHARDSON, TX 75080",32.97488,-96.74212,,,
,"6767 BRENTFIELD DR DALLAS, TX 75248",32.97564,-96.79123,,,
,"255 E PARKWAY BLVD COPPELL, TX 75019",32.97573,-96.99114,,,
,"6010 DAVENPORT RD DALLAS, TX 75248",32.97584,-96.80392,,,
,"615 MINYARD DR COPPELL, TX 75019",32.97639,-97.00743,,,
,"2120 E PRAIRIE CREEK DR RICHARDSON, TX 75080",32.9783,-96.72089,,,
,"2335 N. JOSEY LN CARROLLTON, TX 75006",32.97957,-96.89207,,,
,"2100 COPPER RIDGE DR RICHARDSON, TX 75080",32.98152,-96.73997,,,
,"3330 SPRINGPARK WAY GARLAND, TX 75044",32.98155,-96.68152,,,
,"2525 SCOTT MILL RD. CARROLLTON, TX 75006",32.98343,-96.88577,,,
,"800 W CAMPBELL RD RICHARDSON, TX 75080",32.98372,-96.75208,,,
,"17360 COIT ROAD DALLAS, TX 75252",32.98746,-96.76713,,,
,WEST CAMPUS,36.10753,-96.07626,,,
,ANNEX,37.03518,-95.61751,,,
,MAIN CAMPUS C,37.68148,-95.45311,,,
,CEA,40.52993,-74.85343,,,
